STARLINK-1169
1 25061C 20006T   21325.06811277  .00002883  00000-0  19315-3 0  3255
2 25061  53.0523 132.9337 0001699  76.0753 304.8007 15.06401181    17
